{"epoch":1784852036,"count":9914,"objects":[{"id":"38398","name":"OPS 4682 DEB","type":"DEBRIS","l1":"1 38398U 65027DB  26202.21144603 -.00000299  00000-0 -10596-2 0  9999","l2":"2 38398  90.2652  18.6679 0018624  27.5371 332.6732 12.97161415667664"},{"id":"38399","name":"OPS 4682 DEB","type":"DEBRIS","l1":"1 38399U 65027DC  26203.74250864 -.00000238  00000-0 -85112-3 0  9996","l2":"2 38399  90.2555  18.0610 0026955  31.6287 328.6446 12.96873284667361"},{"id":"38400","name":"OPS 4682 DEB","type":"DEBRIS","l1":"1 38400U 65027DD  26203.77576748  .00000708  00000-0  23761-2 0  9995","l2":"2 38400  90.2533  18.0332 0030565 265.5399  94.2231 12.98492031618885"},{"id":"38401","name":"OPS 4682 DEB","type":"DEBRIS","l1":"1 38401U 65027DE  26203.92256139  .00000326  00000-0  11265-2 0  9994","l2":"2 38401  90.2435   9.3783 0034004  95.4749 265.0251 12.95333214667003"},{"id":"38402","name":"OPS 4682 DEB","type":"DEBRIS","l1":"1 38402U 65027DF  26202.23332432  .00000153  00000-0  52534-3 0  9992","l2":"2 38402  90.2392   5.8149 0028096 170.6922 189.4723 12.93910858591491"},{"id":"38403","name":"OPS 4682 DEB","type":"DEBRIS","l1":"1 38403U 65027DG  26202.92842335  .00000308  00000-0  10786-2 0  9991","l2":"2 38403  90.2465  11.6382 0029156 105.5517 254.8823 12.94368204666429"},{"id":"38404","name":"OPS 4682 DEB","type":"DEBRIS","l1":"1 38404U 65027DH  26201.69517064  .00000417  00000-0  13636-2 0  9991","l2":"2 38404  90.2402   7.0680 0019996 207.8664 152.1388 12.99763408669172"},{"id":"38405","name":"OPS 4682 DEB","type":"DEBRIS","l1":"1 38405U 65027DJ  26204.47856375  .00000867  00000-0  28637-2 0  9998","l2":"2 38405  90.2660  23.1016 0019195  61.6787 298.6268 12.99764558669770"},{"id":"38406","name":"OPS 4682 DEB","type":"DEBRIS","l1":"1 38406U 65027DK  26204.16844123  .00000194  00000-0  61483-3 0  9993","l2":"2 38406  90.2447  11.9652 0026347 151.2679 208.9901 13.00334664559947"},{"id":"38407","name":"OPS 4682 DEB","type":"DEBRIS","l1":"1 38407U 65027DL  26201.22217817  .00000646  00000-0  22108-2 0  9994","l2":"2 38407  90.2421   8.1613 0030261  47.4619 312.9049 12.96947958305550"},{"id":"38408","name":"OPS 4682 DEB","type":"DEBRIS","l1":"1 38408U 65027DM  26198.95124169  .00000921  00000-0  29276-2 0  9996","l2":"2 38408  90.2855  16.2576 0045155  84.8761 275.7514 13.02181597609211"},{"id":"38409","name":"OPS 4682 DEB","type":"DEBRIS","l1":"1 38409U 65027DN  26204.46339684 -.00000299  00000-0 -10283-2 0  9999","l2":"2 38409  90.2901  28.0621 0034494 253.3428 106.3906 12.99182519192922"},{"id":"38410","name":"OPS 4682 DEB","type":"DEBRIS","l1":"1 38410U 65027DP  26204.43634625  .00000202  00000-0  66691-3 0  9998","l2":"2 38410  90.2447  11.6133 0032556  14.5584 345.6467 12.97576579635701"},{"id":"38411","name":"OPS 4682 DEB","type":"DEBRIS","l1":"1 38411U 65027DQ  26204.44864437  .00000193  00000-0  64304-3 0  9994","l2":"2 38411  90.2546  16.9336 0038723 359.1887   0.9164 12.96915998667577"},{"id":"38412","name":"OPS 4682 DEB","type":"DEBRIS","l1":"1 38412U 65027DR  26204.38375863  .00000048  00000-0  14596-3 0  9995","l2":"2 38412  90.2366   3.9378 0032850 158.1872 202.0655 12.94855113635346"},{"id":"38413","name":"OPS 4682 DEB","type":"DEBRIS","l1":"1 38413U 65027DS  26202.72742819 -.00000551  00000-0 -18519-2 0  9990","l2":"2 38413  90.2425  11.0246 0029250 193.2378 166.7980 13.00040165129760"},{"id":"38414","name":"OPS 4682 DEB","type":"DEBRIS","l1":"1 38414U 65027DT  26203.87017759  .00000760  00000-0  25614-2 0  9990","l2":"2 38414  90.2340 353.1423 0038826  18.5335 341.7190 12.98099147145435"},{"id":"38415","name":"OPS 4682 DEB","type":"DEBRIS","l1":"1 38415U 65027DU  26200.21822225 -.00000421  00000-0 -13746-2 0  9997","l2":"2 38415  90.2467  15.2541 0030325  31.1605 329.1309 13.02414323619105"},{"id":"38416","name":"OPS 4682 DEB","type":"DEBRIS","l1":"1 38416U 65027DV  26204.43218307  .00000133  00000-0  44181-3 0  9992","l2":"2 38416  90.2461  10.4591 0034096  46.4144 313.9796 12.95862520639412"},{"id":"38417","name":"OPS 4682 DEB","type":"DEBRIS","l1":"1 38417U 65027DW  26203.92623067  .00000551  00000-0  18899-2 0  9999","l2":"2 38417  90.2498  13.0941 0033830  52.1559 308.2615 12.96690863611316"},{"id":"38418","name":"OPS 4682 DEB","type":"DEBRIS","l1":"1 38418U 65027DX  26204.42153073 -.00000313  00000-0 -10500-2 0  9990","l2":"2 38418  90.2402   9.5609 0031097 119.4812 240.9419 13.01001866556267"},{"id":"38419","name":"OPS 4682 DEB","type":"DEBRIS","l1":"1 38419U 65027DY  26200.43303054  .00000102  00000-0  33431-3 0  9997","l2":"2 38419  90.2402   6.5126 0032798  93.5491 266.9381 12.95154821305241"},{"id":"38420","name":"OPS 4682 DEB","type":"DEBRIS","l1":"1 38420U 65027DZ  26203.89825197  .00000168  00000-0  53104-3 0  9990","l2":"2 38420  90.2476  11.7648 0029696 171.9117 188.2490 13.00006013559020"},{"id":"38421","name":"OPS 4682 DEB","type":"DEBRIS","l1":"1 38421U 65027EA  26204.16997114 -.00000062  00000-0 -19911-3 0  9994","l2":"2 38421  90.2607   9.9011 0033329 195.6448 164.3653 13.09980906673336"},{"id":"38422","name":"OPS 4682 DEB","type":"DEBRIS","l1":"1 38422U 65027EB  26204.49056567  .00000676  00000-0  22918-2 0  9998","l2":"2 38422  90.2655  25.2280 0033025 329.1414  30.7765 12.97655734667831"},{"id":"38423","name":"OPS 4682 DEB","type":"DEBRIS","l1":"1 38423U 65027EC  26203.92340528  .00000515  00000-0  18039-2 0  9990","l2":"2 38423  90.2487  12.6281 0016803 137.9606 222.2806 12.95311657638742"},{"id":"38424","name":"OPS 4682 DEB","type":"DEBRIS","l1":"1 38424U 65027ED  26203.89469091  .00000830  00000-0  25794-2 0  9990","l2":"2 38424  90.2357   8.0006 0027835  59.4969 300.8899 13.03912520316485"},{"id":"38425","name":"OPS 4682 DEB","type":"DEBRIS","l1":"1 38425U 65027EE  26201.75323299  .00000327  00000-0  11341-2 0  9997","l2":"2 38425  90.2454   8.4564 0038498 139.4792 220.9205 12.95201109666909"},{"id":"38426","name":"OPS 4682 DEB","type":"DEBRIS","l1":"1 38426U 65027EF  26202.71049580  .00000047  00000-0  13840-3 0  9999","l2":"2 38426  90.2443  10.8282 0036667  61.3555 299.1245 12.96143451639535"},{"id":"38427","name":"OPS 4682 DEB","type":"DEBRIS","l1":"1 38427U 65027EG  26203.88650417  .00000180  00000-0  64616-3 0  9991","l2":"2 38427  90.2328   1.3611 0033867  92.4794 268.0201 12.91425770666357"},{"id":"38428","name":"OPS 4682 DEB","type":"DEBRIS","l1":"1 38428U 65027EH  26204.21221684  .00000087  00000-0  27298-3 0  9991","l2":"2 38428  90.2490  14.1803 0042453 324.4808  35.3488 12.97509931602583"},{"id":"38429","name":"OPS 4682 DEB","type":"DEBRIS","l1":"1 38429U 65027EJ  26202.15238660 -.00000157  00000-0 -56080-3 0  9996","l2":"2 38429  90.2347   1.4601 0039791 306.1907  53.5536 12.98007719593828"},{"id":"38430","name":"OPS 4682 DEB","type":"DEBRIS","l1":"1 38430U 65027EK  26204.19420591  .00000577  00000-0  18782-2 0  9990","l2":"2 38430  90.2674  23.4580 0050053 247.8267 111.7539 13.00201984668374"},{"id":"38431","name":"OPS 4682 DEB","type":"DEBRIS","l1":"1 38431U 65027EL  26200.42166194  .00000813  00000-0  26458-2 0  9991","l2":"2 38431  90.2342 358.2039 0026129 142.2348 218.0615 13.00705264668769"},{"id":"38433","name":"OPS 4682 DEB","type":"DEBRIS","l1":"1 38433U 65027EN  26199.73720316 -.00000150  00000-0 -44006-3 0  9992","l2":"2 38433  90.2588  14.0346 0031710  92.4914 267.9847 13.12280088635981"},{"id":"38434","name":"OPS 4682 DEB","type":"DEBRIS","l1":"1 38434U 65027EP  26203.90299561  .00000671  00000-0  22821-2 0  9997","l2":"2 38434  90.2439   6.7381 0033634 107.8513 252.6281 12.97405748667147"},{"id":"38436","name":"OPS 4682 DEB","type":"DEBRIS","l1":"1 38436U 65027ER  26202.73465039  .00000672  00000-0  22085-2 0  9997","l2":"2 38436  90.2408   3.6413 0023676 196.1566 163.8804 12.99971520619915"},{"id":"38437","name":"OPS 4682 DEB","type":"DEBRIS","l1":"1 38437U 65027ES  26202.91197644  .00000492  00000-0  16999-2 0  9999","l2":"2 38437  90.2361   6.3974 0040676  77.3122 283.2540 12.95939338555047"},{"id":"38438","name":"OPS 4682 DEB","type":"DEBRIS","l1":"1 38438U 65027ET  26204.44214772  .00000287  00000-0  10231-2 0  9997","l2":"2 38438  90.2406   6.4167 0030614 172.7865 187.3700 12.93128946665720"},{"id":"38439","name":"OPS 4682 DEB","type":"DEBRIS","l1":"1 38439U 65027EU  26203.49873763 -.00000258  00000-0 -87934-3 0  9998","l2":"2 38439  90.3033  36.9134 0034665 301.9453  57.8300 12.99975002669370"},{"id":"38440","name":"OPS 4682 DEB","type":"DEBRIS","l1":"1 38440U 65027EV  26203.73676837 -.00000316  00000-0 -10884-2 0  9994","l2":"2 38440  90.2563  18.1031 0036305 292.4901  67.2378 12.98947561621570"},{"id":"38441","name":"OPS 4682 DEB","type":"DEBRIS","l1":"1 38441U 65027EW  26203.90513073  .00000509  00000-0  17549-2 0  9993","l2":"2 38441  90.2464   8.8919 0031703  85.4574 275.0167 12.96212591617043"},{"id":"38442","name":"OPS 4682 DEB","type":"DEBRIS","l1":"1 38442U 65027EX  26203.74151716  .00000248  00000-0  86941-3 0  9991","l2":"2 38442  90.2447   6.5860 0033202 142.2158 218.1301 12.93948102592176"},{"id":"38443","name":"OPS 4682 DEB","type":"DEBRIS","l1":"1 38443U 65027EY  26204.20555171  .00001037  00000-0  33700-2 0  9998","l2":"2 38443  90.2367   3.8713 0031124 144.7652 215.5536 13.00924999556507"},{"id":"38444","name":"OPS 4682 DEB","type":"DEBRIS","l1":"1 38444U 65027EZ  26203.90396925  .00000469  00000-0  16128-2 0  9998","l2":"2 38444  90.2468  10.7589 0027677  91.6372 268.7918 12.96362733639057"},{"id":"38445","name":"OPS 4682 DEB","type":"DEBRIS","l1":"1 38445U 65027FA  26201.22360506  .00000396  00000-0  13744-2 0  9998","l2":"2 38445  90.2403   7.3286 0032367 113.8041 246.6477 12.95420496608304"},{"id":"38446","name":"OPS 4682 DEB","type":"DEBRIS","l1":"1 38446U 65027FB  26196.98044995  .00000869  00000-0  28090-2 0  9991","l2":"2 38446  90.2692  28.5948 0015351 342.0416  18.0163 13.01367437591027"},{"id":"38448","name":"OPS 4682 DEB","type":"DEBRIS","l1":"1 38448U 65027FD  26202.21887833  .00000932  00000-0  30515-2 0  9999","l2":"2 38448  90.2394   7.4406 0031119 149.0347 211.2618 13.00349688558786"}]}